{"type": "FeatureCollection", "features": [ {"type": "Feature", "properties": {"norad_id": 38755, "name": "SPOT 6", "group": "resource", "lat": 11.030006755383766, "lon": -127.6522025430616, "alt_km": 698.9218891249475, "timestamp": "2025-12-11T22:43:46.928424+00:00", "meta": {"OBJECT_NAME": "SPOT 6", "OBJECT_ID": "2012-047A", "EPOCH": "2025-12-11T15:22:23.217600", "MEAN_MOTION": 14.58602074, "ECCENTRICITY": 0.00011147, "INCLINATION": 98.1568, "RA_OF_ASC_NODE": 50.4449, "ARG_OF_PERICENTER": 94.9284, "MEAN_ANOMALY": 265.2043, "EPHEMERIS_TYPE": 0, "CLASSIFICATION_TYPE": "U", "NORAD_CAT_ID": 38755, "ELEMENT_SET_NO": 999, "REV_AT_EPOCH": 70571, "BSTAR": 0.00018500083, "MEAN_MOTION_DOT": 8.16e-06, "MEAN_MOTION_DDOT": 0}, "tle": {"line1": "1 38755U 12047A   25345.64054650  .00000816  00000+0  18500-3 0  9992", "line2": "2 38755  98.1568  50.4449 0001114  94.9284 265.2043 14.58602074705715"}}, "geometry": {"type": "Point", "coordinates": [-127.6522025430616, 11.030006755383766]}}, {"type": "Feature", "properties": {"norad_id": 39019, "name": "PLEIADES 1B", "group": "resource", "lat": 66.02270801207385, "lon": 39.74360257585226, "alt_km": 690.5599031925749, "timestamp": "2025-12-11T22:43:46.928435+00:00", "meta": {"OBJECT_NAME": "PLEIADES 1B", "OBJECT_ID": "2012-068A", "EPOCH": "2025-12-11T15:50:10.155264", "MEAN_MOTION": 14.58551787, "ECCENTRICITY": 0.00012255, "INCLINATION": 98.179, "RA_OF_ASC_NODE": 58.3282, "ARG_OF_PERICENTER": 80.8353, "MEAN_ANOMALY": 279.2985, "EPHEMERIS_TYPE": 0, "CLASSIFICATION_TYPE": "U", "NORAD_CAT_ID": 39019, "ELEMENT_SET_NO": 999, "REV_AT_EPOCH": 69351, "BSTAR": 0.00019485111, "MEAN_MOTION_DOT": 8.6e-06, "MEAN_MOTION_DDOT": 0}, "tle": {"line1": "1 39019U 12068A   25345.65983976  .00000860  00000+0  19485-3 0  9994", "line2": "2 39019  98.1790  58.3282 0001225  80.8353 279.2985 14.58551787693510"}}, "geometry": {"type": "Point", "coordinates": [39.74360257585226, 66.02270801207385]}}, {"type": "Feature", "properties": {"norad_id": 39030, "name": "GOKTURK 2", "group": "resource", "lat": -54.45546244796347, "lon": -3.260980635015623, "alt_km": 651.7346151232086, "timestamp": "2025-12-11T22:43:46.928446+00:00", "meta": {"OBJECT_NAME": "GOKTURK 2", "OBJECT_ID": "2012-073A", "EPOCH": "2025-12-11T15:09:21.792672", "MEAN_MOTION": 14.75288103, "ECCENTRICITY": 9.789e-05, "INCLINATION": 97.6894, "RA_OF_ASC_NODE": 187.3395, "ARG_OF_PERICENTER": 103.9749, "MEAN_ANOMALY": 256.1569, "EPHEMERIS_TYPE": 0, "CLASSIFICATION_TYPE": "U", "NORAD_CAT_ID": 39030, "ELEMENT_SET_NO": 999, "REV_AT_EPOCH": 69685, "BSTAR": 0.00012508539, "MEAN_MOTION_DOT": 8e-06, "MEAN_MOTION_DDOT": 0}, "tle": {"line1": "1 39030U 12073A   25345.63150223  .00000800  00000+0  12509-3 0  9996", "line2": "2 39030  97.6894 187.3395 0000978 103.9749 256.1569 14.75288103696850"}}, "geometry": {"type": "Point", "coordinates": [-3.260980635015623, -54.45546244796347]}}, {"type": "Feature", "properties": {"norad_id": 39084, "name": "LANDSAT 8", "group": "resource", "lat": -60.55909067709879, "lon": -140.78383117147976, "alt_km": 710.3552453238362, "timestamp": "2025-12-11T22:43:46.928457+00:00", "meta": {"OBJECT_NAME": "LANDSAT 8", "OBJECT_ID": "2013-008A", "EPOCH": "2025-12-11T15:01:55.840800", "MEAN_MOTION": 14.57112419, "ECCENTRICITY": 0.00010948, "INCLINATION": 98.2074, "RA_OF_ASC_NODE": 53.7162, "ARG_OF_PERICENTER": 88.0236, "MEAN_ANOMALY": 272.1088, "EPHEMERIS_TYPE": 0, "CLASSIFICATION_TYPE": "U", "NORAD_CAT_ID": 39084, "ELEMENT_SET_NO": 999, "REV_AT_EPOCH": 67058, "BSTAR": 0.00016165426, "MEAN_MOTION_DOT": 6.83e-06, "MEAN_MOTION_DDOT": 0}, "tle": {"line1": "1 39084U 13008A   25345.62634075  .00000683  00000+0  16165-3 0  9996", "line2": "2 39084  98.2074  53.7162 0001094  88.0236 272.1088 14.57112419670580"}}, "geometry": {"type": "Point", "coordinates": [-140.78383117147976, -60.55909067709879]}}, {"type": "Feature", "properties": {"norad_id": 39086, "name": "SARAL", "group": "resource", "lat": -62.176736030314494, "lon": -173.54956684725246, "alt_km": 791.7106164925672, "timestamp": "2025-12-11T22:43:46.928468+00:00", "meta": {"OBJECT_NAME": "SARAL", "OBJECT_ID": "2013-009A", "EPOCH": "2025-12-11T14:38:42.461952", "MEAN_MOTION": 14.32756404, "ECCENTRICITY": 0.00028478, "INCLINATION": 98.5503, "RA_OF_ASC_NODE": 169.5554, "ARG_OF_PERICENTER": 110.748, "MEAN_ANOMALY": 249.4009, "EPHEMERIS_TYPE": 0, "CLASSIFICATION_TYPE": "U", "NORAD_CAT_ID": 39086, "ELEMENT_SET_NO": 999, "REV_AT_EPOCH": 66874, "BSTAR": 9.1960134e-05, "MEAN_MOTION_DOT": 2.07e-06, "MEAN_MOTION_DDOT": 0}, "tle": {"line1": "1 39086U 13009A   25345.61021368  .00000207  00000+0  91960-4 0  9992", "line2": "2 39086  98.5503 169.5554 0002847 110.7480 249.4009 14.32756404668740"}}, "geometry": {"type": "Point", "coordinates": [-173.54956684725246, -62.176736030314494]}}, {"type": "Feature", "properties": {"norad_id": 39150, "name": "GAOFEN-1", "group": "resource", "lat": -49.79378987840663, "lon": 66.11439425261736, "alt_km": 659.4435780048352, "timestamp": "2025-12-11T22:43:46.928478+00:00", "meta": {"OBJECT_NAME": "GAOFEN-1", "OBJECT_ID": "2013-018A", "EPOCH": "2025-12-11T14:49:35.398848", "MEAN_MOTION": 14.76530329, "ECCENTRICITY": 0.00181228, "INCLINATION": 97.9321, "RA_OF_ASC_NODE": 56.2965, "ARG_OF_PERICENTER": 146.4091, "MEAN_ANOMALY": 213.8272, "EPHEMERIS_TYPE": 0, "CLASSIFICATION_TYPE": "U", "NORAD_CAT_ID": 39150, "ELEMENT_SET_NO": 999, "REV_AT_EPOCH": 68056, "BSTAR": 0.00018408549, "MEAN_MOTION_DOT": 1.235e-05, "MEAN_MOTION_DDOT": 0}, "tle": {"line1": "1 39150U 13018A   25345.61777082  .00001235  00000+0  18409-3 0  9993", "line2": "2 39150  97.9321  56.2965 0018122 146.4091 213.8272 14.76530329680563"}}, "geometry": {"type": "Point", "coordinates": [66.11439425261736, -49.79378987840663]}}, {"type": "Feature", "properties": {"norad_id": 39160, "name": "VNREDSAT 1", "group": "resource", "lat": 44.526893817892685, "lon": 33.36194263367906, "alt_km": 672.7595993072237, "timestamp": "2025-12-11T22:43:46.928489+00:00", "meta": {"OBJECT_NAME": "VNREDSAT 1", "OBJECT_ID": "2013-021B", "EPOCH": "2025-12-11T14:19:41.440224", "MEAN_MOTION": 14.64920149, "ECCENTRICITY": 0.00013337, "INCLINATION": 97.937, "RA_OF_ASC_NODE": 40.9116, "ARG_OF_PERICENTER": 79.0441, "MEAN_ANOMALY": 281.0912, "EPHEMERIS_TYPE": 0, "CLASSIFICATION_TYPE": "U", "NORAD_CAT_ID": 39160, "ELEMENT_SET_NO": 999, "REV_AT_EPOCH": 67282, "BSTAR": 0.00022816671, "MEAN_MOTION_DOT": 1.175e-05, "MEAN_MOTION_DDOT": 0}, "tle": {"line1": "1 39160U 13021B   25345.59700741  .00001175  00000+0  22817-3 0  9994", "line2": "2 39160  97.9370  40.9116 0001333  79.0441 281.0912 14.64920149672820"}}, "geometry": {"type": "Point", "coordinates": [33.36194263367906, 44.526893817892685]}}, {"type": "Feature", "properties": {"norad_id": 39227, "name": "ARIRANG-5 (KOMPSAT-5)", "group": "resource", "lat": 10.54209791968463, "lon": 168.83572669814322, "alt_km": 552.8660459969433, "timestamp": "2025-12-11T22:43:46.928501+00:00", "meta": {"OBJECT_NAME": "ARIRANG-5 (KOMPSAT-5)", "OBJECT_ID": "2013-042A", "EPOCH": "2025-12-11T14:42:05.401728", "MEAN_MOTION": 15.04497784, "ECCENTRICITY": 0.00036872, "INCLINATION": 97.6143, "RA_OF_ASC_NODE": 169.9327, "ARG_OF_PERICENTER": 58.334, "MEAN_ANOMALY": 301.8245, "EPHEMERIS_TYPE": 0, "CLASSIFICATION_TYPE": "U", "NORAD_CAT_ID": 39227, "ELEMENT_SET_NO": 999, "REV_AT_EPOCH": 67565, "BSTAR": 0.00027772268, "MEAN_MOTION_DOT": 3.828e-05, "MEAN_MOTION_DDOT": 0}, "tle": {"line1": "1 39227U 13042A   25345.61256252  .00003828  00000+0  27772-3 0  9999", "line2": "2 39227  97.6143 169.9327 0003687  58.3340 301.8245 15.04497784675650"}}, "geometry": {"type": "Point", "coordinates": [168.83572669814322, 10.54209791968463]}}, {"type": "Feature", "properties": {"norad_id": 39418, "name": "SKYSAT-A", "group": "resource", "lat": 3.686272930333219, "lon": 35.69902551725386, "alt_km": 541.9526327996045, "timestamp": "2025-12-11T22:43:46.928512+00:00", "meta": {"OBJECT_NAME": "SKYSAT-A", "OBJECT_ID": "2013-066C", "EPOCH": "2025-12-11T14:46:10.466688", "MEAN_MOTION": 15.11591227, "ECCENTRICITY": 0.0020651, "INCLINATION": 97.411, "RA_OF_ASC_NODE": 35.8579, "ARG_OF_PERICENTER": 240.6292, "MEAN_ANOMALY": 119.2877, "EPHEMERIS_TYPE": 0, "CLASSIFICATION_TYPE": "U", "NORAD_CAT_ID": 39418, "ELEMENT_SET_NO": 999, "REV_AT_EPOCH": 66013, "BSTAR": 0.00034734449, "MEAN_MOTION_DOT": 5.863e-05, "MEAN_MOTION_DDOT": 0}, "tle": {"line1": "1 39418U 13066C   25345.61539892  .00005863  00000+0  34734-3 0  9998", "line2": "2 39418  97.4110  35.8579 0020651 240.6292 119.2877 15.11591227660130"}}, "geometry": {"type": "Point", "coordinates": [35.69902551725386, 3.686272930333219]}}, {"type": "Feature", "properties": {"norad_id": 39419, "name": "DUBAISAT-2", "group": "resource", "lat": 24.740576961418004, "lon": 159.83369088436908, "alt_km": 547.9586530521537, "timestamp": "2025-12-11T22:43:46.928523+00:00", "meta": {"OBJECT_NAME": "DUBAISAT-2", "OBJECT_ID": "2013-066D", "EPOCH": "2025-12-11T10:53:58.335360", "MEAN_MOTION": 15.08338462, "ECCENTRICITY": 0.00107826, "INCLINATION": 97.4458, "RA_OF_ASC_NODE": 335.9009, "ARG_OF_PERICENTER": 325.3786, "MEAN_ANOMALY": 34.674, "EPHEMERIS_TYPE": 0, "CLASSIFICATION_TYPE": "U", "NORAD_CAT_ID": 39419, "ELEMENT_SET_NO": 999, "REV_AT_EPOCH": 65807, "BSTAR": 0.00049321564, "MEAN_MOTION_DOT": 7.609e-05, "MEAN_MOTION_DDOT": 0}, "tle": {"line1": "1 39419U 13066D   25345.45414740  .00007609  00000+0  49322-3 0  9994", "line2": "2 39419  97.4458 335.9009 0010782 325.3786  34.6740 15.08338462658076"}}, "geometry": {"type": "Point", "coordinates": [159.83369088436908, 24.740576961418004]}}]}